[{"OBJECT_NAME":"STARLINK-1423","OBJECT_ID":"2020-035BF","EPOCH":"2026-03-09T06:28:42.791808","MEAN_MOTION":15.52734851,"ECCENTRICITY":0.00077383,"INCLINATION":53.0523,"RA_OF_ASC_NODE":24.0364,"ARG_OF_PERICENTER":108.2998,"MEAN_ANOMALY":251.8853,"EPHEMERIS_TYPE":0,"CLASSIFICATION_TYPE":"U","NORAD_CAT_ID":45710,"ELEMENT_SET_NO":999,"REV_AT_EPOCH":31928,"BSTAR":0.0016417081,"MEAN_MOTION_DOT":0.00104188,"MEAN_MOTION_DDOT":0},{"OBJECT_NAME":"FLOCK 4Q-26","OBJECT_ID":"2023-174AE","EPOCH":"2026-03-09T17:31:54.974496","MEAN_MOTION":15.50866575,"ECCENTRICITY":0.00073348,"INCLINATION":97.3894,"RA_OF_ASC_NODE":158.0869,"ARG_OF_PERICENTER":149.9195,"MEAN_ANOMALY":210.2479,"EPHEMERIS_TYPE":0,"CLASSIFICATION_TYPE":"U","NORAD_CAT_ID":58284,"ELEMENT_SET_NO":999,"REV_AT_EPOCH":13038,"BSTAR":0.00056917098,"MEAN_MOTION_DOT":0.00032914,"MEAN_MOTION_DDOT":0}]
