STARLINK-1423           
1 45710U 20035BF  26068.26993972  .00104188  00000+0  16417-2 0  9998
2 45710  53.0523  24.0364 0007738 108.2998 251.8853 15.52734851319284
FLOCK 4Q-26             
1 58284U 23174AE  26068.73049739  .00032914  00000+0  56917-3 0  9997
2 58284  97.3894 158.0869 0007335 149.9195 210.2479 15.50866575130380
